{"type": "FeatureCollection", "features": [ {"type": "Feature", "properties": {"norad_id": 39122, "name": "EUTELSAT 117 WEST A", "group": "eutelsat", "lat": -0.02281986716740769, "lon": -54.94249742358203, "alt_km": 35776.81698225807, "timestamp": "2025-12-11T22:43:46.943412+00:00", "meta": {"OBJECT_NAME": "EUTELSAT 117 WEST A", "OBJECT_ID": "2013-012A", "EPOCH": "2025-12-11T11:14:33.966816", "MEAN_MOTION": 1.00271332, "ECCENTRICITY": 0.00029746, "INCLINATION": 0.0138, "RA_OF_ASC_NODE": 4.2554, "ARG_OF_PERICENTER": 258.9766, "MEAN_ANOMALY": 229.0323, "EPHEMERIS_TYPE": 0, "CLASSIFICATION_TYPE": "U", "NORAD_CAT_ID": 39122, "ELEMENT_SET_NO": 999, "REV_AT_EPOCH": 4655, "BSTAR": 0, "MEAN_MOTION_DOT": -6e-08, "MEAN_MOTION_DDOT": 0}, "tle": {"line1": "1 39122U 13012A   25345.46844869 -.00000006  00000+0  00000+0 0  9997", "line2": "2 39122   0.0138   4.2554 0002974 258.9766 229.0323  1.00271332 46556"}}, "geometry": {"type": "Point", "coordinates": [-54.94249742358203, -0.02281986716740769]}}, {"type": "Feature", "properties": {"norad_id": 39163, "name": "EUTELSAT 7B", "group": "eutelsat", "lat": 0.07243553562618248, "lon": 68.8828406605498, "alt_km": 35793.261759877845, "timestamp": "2025-12-11T22:43:46.943425+00:00", "meta": {"OBJECT_NAME": "EUTELSAT 7B", "OBJECT_ID": "2013-022A", "EPOCH": "2025-12-11T13:32:37.377600", "MEAN_MOTION": 1.00272561, "ECCENTRICITY": 0.00046066, "INCLINATION": 0.0725, "RA_OF_ASC_NODE": 19.1801, "ARG_OF_PERICENTER": 297.3227, "MEAN_ANOMALY": 334.1679, "EPHEMERIS_TYPE": 0, "CLASSIFICATION_TYPE": "U", "NORAD_CAT_ID": 39163, "ELEMENT_SET_NO": 999, "REV_AT_EPOCH": 4607, "BSTAR": 0, "MEAN_MOTION_DOT": 5.5e-07, "MEAN_MOTION_DDOT": 0}, "tle": {"line1": "1 39163U 13022A   25345.56432150  .00000055  00000+0  00000+0 0  9993", "line2": "2 39163   0.0725  19.1801 0004606 297.3227 334.1679  1.00272561 46070"}}, "geometry": {"type": "Point", "coordinates": [68.8828406605498, 0.07243553562618248]}}, {"type": "Feature", "properties": {"norad_id": 39612, "name": "EXPRESS-AT1", "group": "eutelsat", "lat": 0.00779858063504027, "lon": 117.82732152916024, "alt_km": 35786.309530918516, "timestamp": "2025-12-11T22:43:46.943447+00:00", "meta": {"OBJECT_NAME": "EXPRESS-AT1", "OBJECT_ID": "2014-010A", "EPOCH": "2025-12-11T15:29:26.191392", "MEAN_MOTION": 1.00271326, "ECCENTRICITY": 4.173e-05, "INCLINATION": 0.0163, "RA_OF_ASC_NODE": 298.4962, "ARG_OF_PERICENTER": 273.1745, "MEAN_ANOMALY": 157.2829, "EPHEMERIS_TYPE": 0, "CLASSIFICATION_TYPE": "U", "NORAD_CAT_ID": 39612, "ELEMENT_SET_NO": 999, "REV_AT_EPOCH": 4293, "BSTAR": 0, "MEAN_MOTION_DOT": 8.6e-07, "MEAN_MOTION_DDOT": 0}, "tle": {"line1": "1 39612U 14010A   25345.64544203  .00000086  00000+0  00000+0 0  9996", "line2": "2 39612   0.0163 298.4962 0000417 273.1745 157.2829  1.00271326 42938"}}, "geometry": {"type": "Point", "coordinates": [117.82732152916024, 0.00779858063504027]}}, {"type": "Feature", "properties": {"norad_id": 39613, "name": "EXPRESS-AT2", "group": "eutelsat", "lat": -0.031209912612562944, "lon": -158.30900454266998, "alt_km": 35784.65986419494, "timestamp": "2025-12-11T22:43:46.943470+00:00", "meta": {"OBJECT_NAME": "EXPRESS-AT2", "OBJECT_ID": "2014-010B", "EPOCH": "2025-12-11T14:10:33.743712", "MEAN_MOTION": 1.00271711, "ECCENTRICITY": 0.00014336, "INCLINATION": 0.0193, "RA_OF_ASC_NODE": 312.623, "ARG_OF_PERICENTER": 324.9956, "MEAN_ANOMALY": 155.4371, "EPHEMERIS_TYPE": 0, "CLASSIFICATION_TYPE": "U", "NORAD_CAT_ID": 39613, "ELEMENT_SET_NO": 999, "REV_AT_EPOCH": 4261, "BSTAR": 0, "MEAN_MOTION_DOT": -2.74e-06, "MEAN_MOTION_DDOT": 0}, "tle": {"line1": "1 39613U 14010B   25345.59066833 -.00000274  00000+0  00000+0 0  9999", "line2": "2 39613   0.0193 312.6230 0001433 324.9956 155.4371  1.00271711 42612"}}, "geometry": {"type": "Point", "coordinates": [-158.30900454266998, -0.031209912612562944]}}, {"type": "Feature", "properties": {"norad_id": 39773, "name": "EUTELSAT 3B", "group": "eutelsat", "lat": 0.07858476206146581, "lon": 64.93582098104658, "alt_km": 35804.7877640899, "timestamp": "2025-12-11T22:43:46.943493+00:00", "meta": {"OBJECT_NAME": "EUTELSAT 3B", "OBJECT_ID": "2014-030A", "EPOCH": "2025-12-10T23:49:46.953984", "MEAN_MOTION": 1.00272013, "ECCENTRICITY": 0.00046411, "INCLINATION": 0.0617, "RA_OF_ASC_NODE": 345.4375, "ARG_OF_PERICENTER": 243.1309, "MEAN_ANOMALY": 211.9454, "EPHEMERIS_TYPE": 0, "CLASSIFICATION_TYPE": "U", "NORAD_CAT_ID": 39773, "ELEMENT_SET_NO": 999, "REV_AT_EPOCH": 4218, "BSTAR": 0, "MEAN_MOTION_DOT": 2.5e-07, "MEAN_MOTION_DDOT": 0}, "tle": {"line1": "1 39773U 14030A   25344.99290456  .00000025  00000+0  00000+0 0  9994", "line2": "2 39773   0.0617 345.4375 0004641 243.1309 211.9454  1.00272013 42180"}}, "geometry": {"type": "Point", "coordinates": [64.93582098104658, 0.07858476206146581]}}, {"type": "Feature", "properties": {"norad_id": 40425, "name": "EUTELSAT 115 WEST B", "group": "eutelsat", "lat": 0.004173728693310476, "lon": -53.06964199606036, "alt_km": 35787.87386006639, "timestamp": "2025-12-11T22:43:46.943508+00:00", "meta": {"OBJECT_NAME": "EUTELSAT 115 WEST B", "OBJECT_ID": "2015-010B", "EPOCH": "2025-12-10T23:16:05.182752", "MEAN_MOTION": 1.00269045, "ECCENTRICITY": 3.113e-05, "INCLINATION": 0.0085, "RA_OF_ASC_NODE": 151.2991, "ARG_OF_PERICENTER": 11.6564, "MEAN_ANOMALY": 151.0992, "EPHEMERIS_TYPE": 0, "CLASSIFICATION_TYPE": "U", "NORAD_CAT_ID": 40425, "ELEMENT_SET_NO": 999, "REV_AT_EPOCH": 3950, "BSTAR": 0, "MEAN_MOTION_DOT": -1.9e-07, "MEAN_MOTION_DDOT": 0}, "tle": {"line1": "1 40425U 15010B   25344.96950443 -.00000019  00000+0  00000+0 0  9999", "line2": "2 40425   0.0085 151.2991 0000311  11.6564 151.0992  1.00269045 39507"}}, "geometry": {"type": "Point", "coordinates": [-53.06964199606036, 0.004173728693310476]}}, {"type": "Feature", "properties": {"norad_id": 40875, "name": "EUTELSAT 8 WEST B", "group": "eutelsat", "lat": 0.065571171153544, "lon": 53.87883928318963, "alt_km": 35801.87272679332, "timestamp": "2025-12-11T22:43:46.943521+00:00", "meta": {"OBJECT_NAME": "EUTELSAT 8 WEST B", "OBJECT_ID": "2015-039B", "EPOCH": "2025-12-11T13:28:07.807872", "MEAN_MOTION": 1.002716, "ECCENTRICITY": 0.00041988, "INCLINATION": 0.065, "RA_OF_ASC_NODE": 5.4602, "ARG_OF_PERICENTER": 256.0204, "MEAN_ANOMALY": 13.0875, "EPHEMERIS_TYPE": 0, "CLASSIFICATION_TYPE": "U", "NORAD_CAT_ID": 40875, "ELEMENT_SET_NO": 999, "REV_AT_EPOCH": 3777, "BSTAR": 0, "MEAN_MOTION_DOT": -5.8e-07, "MEAN_MOTION_DDOT": 0}, "tle": {"line1": "1 40875U 15039B   25345.56120148 -.00000058  00000+0  00000+0 0  9990", "line2": "2 40875   0.0650   5.4602 0004198 256.0204  13.0875  1.00271600 37770"}}, "geometry": {"type": "Point", "coordinates": [53.87883928318963, 0.065571171153544]}}, {"type": "Feature", "properties": {"norad_id": 41310, "name": "EUTELSAT 9B", "group": "eutelsat", "lat": 0.023730905724161897, "lon": 70.87965814769066, "alt_km": 35805.24747697877, "timestamp": "2025-12-11T22:43:46.943539+00:00", "meta": {"OBJECT_NAME": "EUTELSAT 9B", "OBJECT_ID": "2016-005A", "EPOCH": "2025-12-11T04:59:33.728928", "MEAN_MOTION": 1.00273032, "ECCENTRICITY": 0.00047985, "INCLINATION": 0.0412, "RA_OF_ASC_NODE": 60.4981, "ARG_OF_PERICENTER": 205.8314, "MEAN_ANOMALY": 257.753, "EPHEMERIS_TYPE": 0, "CLASSIFICATION_TYPE": "U", "NORAD_CAT_ID": 41310, "ELEMENT_SET_NO": 999, "REV_AT_EPOCH": 3623, "BSTAR": 0, "MEAN_MOTION_DOT": 6.8e-07, "MEAN_MOTION_DDOT": 0}, "tle": {"line1": "1 41310U 16005A   25345.20802927  .00000068  00000+0  00000+0 0  9992", "line2": "2 41310   0.0412  60.4981 0004798 205.8314 257.7530  1.00273032 36238"}}, "geometry": {"type": "Point", "coordinates": [70.87965814769066, 0.023730905724161897]}}, {"type": "Feature", "properties": {"norad_id": 41382, "name": "EUTELSAT 65 WEST A", "group": "eutelsat", "lat": -0.008427944102213836, "lon": -3.3282214977290705, "alt_km": 35785.85784250498, "timestamp": "2025-12-11T22:43:46.943559+00:00", "meta": {"OBJECT_NAME": "EUTELSAT 65 WEST A", "OBJECT_ID": "2016-014A", "EPOCH": "2025-12-11T13:12:01.849824", "MEAN_MOTION": 1.00272242, "ECCENTRICITY": 0.00025609, "INCLINATION": 0.0513, "RA_OF_ASC_NODE": 11.3121, "ARG_OF_PERICENTER": 256.1627, "MEAN_ANOMALY": 305.8425, "EPHEMERIS_TYPE": 0, "CLASSIFICATION_TYPE": "U", "NORAD_CAT_ID": 41382, "ELEMENT_SET_NO": 999, "REV_AT_EPOCH": 3565, "BSTAR": 0, "MEAN_MOTION_DOT": -2.69e-06, "MEAN_MOTION_DDOT": 0}, "tle": {"line1": "1 41382U 16014A   25345.55002141 -.00000269  00000+0  00000+0 0  9993", "line2": "2 41382   0.0513  11.3121 0002560 256.1627 305.8425  1.00272242 35656"}}, "geometry": {"type": "Point", "coordinates": [-3.3282214977290705, -0.008427944102213836]}}, {"type": "Feature", "properties": {"norad_id": 41589, "name": "EUTELSAT 117 WEST B", "group": "eutelsat", "lat": 0.01583017036970864, "lon": -55.15366948204725, "alt_km": 35787.92894394935, "timestamp": "2025-12-11T22:43:46.943573+00:00", "meta": {"OBJECT_NAME": "EUTELSAT 117 WEST B", "OBJECT_ID": "2016-038B", "EPOCH": "2025-12-10T23:15:27.743040", "MEAN_MOTION": 1.00269754, "ECCENTRICITY": 3.232e-05, "INCLINATION": 0.0411, "RA_OF_ASC_NODE": 158.7318, "ARG_OF_PERICENTER": 311.552, "MEAN_ANOMALY": 201.5309, "EPHEMERIS_TYPE": 0, "CLASSIFICATION_TYPE": "U", "NORAD_CAT_ID": 41589, "ELEMENT_SET_NO": 999, "REV_AT_EPOCH": 3477, "BSTAR": 0, "MEAN_MOTION_DOT": -6e-08, "MEAN_MOTION_DDOT": 0}, "tle": {"line1": "1 41589U 16038B   25344.96907110 -.00000006  00000+0  00000+0 0  9991", "line2": "2 41589   0.0411 158.7318 0000323 311.5520 201.5309  1.00269754 34778"}}, "geometry": {"type": "Point", "coordinates": [-55.15366948204725, 0.01583017036970864]}}]}